STARLINK-3878           
1 52479U 22049AE  26068.18384932 -.00000779  00000+0 -30864-4 0  9993
2 52479  53.2174  51.3920 0001411  88.4830 271.6324 15.08834814213552
DISKSAT D               
1 67221U 25305C   26068.55257179  .00011599  00000+0  76841-3 0  9999
2 67221  45.0023 251.6339 0003712 319.2749  40.7848 15.07416577 12277
