[{"OBJECT_NAME":"STARLINK-3878","OBJECT_ID":"2022-049AE","EPOCH":"2026-03-09T04:24:44.581248","MEAN_MOTION":15.08834814,"ECCENTRICITY":0.00014111,"INCLINATION":53.2174,"RA_OF_ASC_NODE":51.392,"ARG_OF_PERICENTER":88.483,"MEAN_ANOMALY":271.6324,"EPHEMERIS_TYPE":0,"CLASSIFICATION_TYPE":"U","NORAD_CAT_ID":52479,"ELEMENT_SET_NO":999,"REV_AT_EPOCH":21355,"BSTAR":-3.0863873e-5,"MEAN_MOTION_DOT":-7.79e-6,"MEAN_MOTION_DDOT":0},{"OBJECT_NAME":"DISKSAT D","OBJECT_ID":"2025-305C","EPOCH":"2026-03-09T13:15:42.202656","MEAN_MOTION":15.07416577,"ECCENTRICITY":0.00037124,"INCLINATION":45.0023,"RA_OF_ASC_NODE":251.6339,"ARG_OF_PERICENTER":319.2749,"MEAN_ANOMALY":40.7848,"EPHEMERIS_TYPE":0,"CLASSIFICATION_TYPE":"U","NORAD_CAT_ID":67221,"ELEMENT_SET_NO":999,"REV_AT_EPOCH":1227,"BSTAR":0.00076840651,"MEAN_MOTION_DOT":0.00011599,"MEAN_MOTION_DDOT":0}]
